NORAD_CAT_ID,OBJECT_NAME,OBJECT_TYPE,EPOCH,MEAN_MOTION,ECCENTRICITY,INCLINATION,RA_OF_ASC_NODE,ARG_OF_PERICENTER,MEAN_ANOMALY,BSTAR,MEAN_MOTION_DOT,MEAN_MOTION_DDOT,TLE_LINE0,TLE_LINE1,TLE_LINE2,SEMIMAJOR_AXIS,PERIOD,APOGEE,PERIGEE,DECAYED
56457.0,STARLINK-5994,PAYLOAD,2023-12-20 11:27:58,14.98333578,0.0002836,70.0001,27.3127,258.5734,101.5106,-5.6482e-05,-7.67e-06,0.0,0 STARLINK-5994,1 56457U 23064K   23354.47775692 -.00000767  00000-0 -56482-4 0  9997,2 56457  70.0001  27.3127 0002836 258.5734 101.5106 14.98333578 33889,6950.182,96.107,574.018,570.076,0.0
56457.0,STARLINK-5994,PAYLOAD,2023-12-21 03:29:18,14.98329886,0.0002766,70.0,25.6288,262.6031,97.4814,9.5408e-05,1.046e-05,0.0,0 STARLINK-5994,1 56457U 23064K   23355.14535441  .00001046  00000-0  95408-4 0  9998,2 56457  70.0000  25.6288 0002766 262.6031  97.4814 14.98329886 34343,6950.193,96.107,573.981,570.136,0.0
56457.0,STARLINK-5994,PAYLOAD,2023-12-21 11:29:58,14.98333653,0.0002672,70.0001,24.7874,258.9264,101.1594,0.00011017,1.222e-05,0.0,0 STARLINK-5994,1 56457U 23064K   23355.47915121  .00001222  00000-0  11017-3 0  9990,2 56457  70.0001  24.7874 0002672 258.9264 101.1594 14.98333653 34038,6950.182,96.107,573.904,570.19,0.0
56457.0,STARLINK-5994,PAYLOAD,2023-12-22 03:31:19,14.98326036,0.0002404,70.0018,23.1064,234.4048,125.6887,7.3112e-06,-6e-08,0.0,0 STARLINK-5994,1 56457U 23064K   23356.14675852 -.00000006  00000-0  73112-5 0  9995,2 56457  70.0018  23.1064 0002404 234.4048 125.6887 14.98326036 34495,6950.205,96.107,573.741,570.399,0.0
56457.0,STARLINK-5994,PAYLOAD,2023-12-22 11:32:00,14.9832289,0.0002557,70.0011,22.2641,248.4818,111.6069,-3.9578e-05,-5.65e-06,0.0,0 STARLINK-5994,1 56457U 23064K   23356.48056345 -.00000565  00000-0 -39578-4 0  9990,2 56457  70.0011  22.2641 0002557 248.4818 111.6069 14.98322890 34185,6950.215,96.107,573.857,570.303,0.0
56457.0,STARLINK-5994,PAYLOAD,2023-12-23 03:33:20,14.98332894,0.0002734,70.0005,20.58,255.3547,104.7309,-2.0708e-05,-3.4e-06,0.0,0 STARLINK-5994,1 56457U 23064K   23357.14815643 -.00000340  00000-0 -20708-4 0  9994,2 56457  70.0005  20.5800 0002734 255.3547 104.7309 14.98332894 34645,6950.184,96.107,573.949,570.149,0.0
56457.0,STARLINK-5994,PAYLOAD,2023-12-23 11:34:00,14.98333661,0.0002702,70.0004,19.7376,253.7649,106.3213,-1.1536e-05,-2.31e-06,0.0,0 STARLINK-5994,1 56457U 23064K   23357.48195501 -.00000231  00000-0 -11536-4 0  9993,2 56457  70.0004  19.7376 0002702 253.7649 106.3213 14.98333661 34333,6950.182,96.107,573.925,570.169,0.0
56457.0,STARLINK-5994,PAYLOAD,2023-12-24 03:35:21,14.98328335,0.0002829,70.0002,18.054,258.0348,102.0494,5.9352e-05,6.15e-06,0.0,0 STARLINK-5994,1 56457U 23064K   23358.14955603  .00000615  00000-0  59352-4 0  9996,2 56457  70.0002  18.0540 0002829 258.0348 102.0494 14.98328335 34796,6950.198,96.107,574.029,570.097,0.0
56457.0,STARLINK-5994,PAYLOAD,2023-12-24 11:36:01,14.98330519,0.0002793,70.0002,17.2123,258.7324,101.3522,8.0406e-05,8.67e-06,0.0,0 STARLINK-5994,1 56457U 23064K   23358.48335418  .00000867  00000-0  80406-4 0  9992,2 56457  70.0002  17.2123 0002793 258.7324 101.3522 14.98330519 34482,6950.191,96.107,573.997,570.115,0.0
56457.0,STARLINK-5994,PAYLOAD,2023-12-25 03:37:22,14.98330082,0.0002649,70.0005,15.5283,261.6439,98.442,-1.3557e-05,-2.55e-06,0.0,0 STARLINK-5994,1 56457U 23064K   23359.15095694 -.00000255  00000-0 -13557-4 0  9992,2 56457  70.0005  15.5283 0002649 261.6439  98.4420 14.98330082 34942,6950.193,96.107,573.899,570.217,0.0
56457.0,STARLINK-5994,PAYLOAD,2023-12-25 11:38:02,14.98328904,0.0002488,70.0006,14.6865,256.4924,103.5958,3.2687e-05,2.97e-06,0.0,0 STARLINK-5994,1 56457U 23064K   23359.48475661  .00000297  00000-0  32687-4 0  9993,2 56457  70.0006  14.6865 0002488 256.4924 103.5958 14.98328904 34631,6950.196,96.107,573.79,570.332,0.0
56457.0,STARLINK-5994,PAYLOAD,2023-12-26 03:39:23,14.98328692,0.0002615,70.0005,13.0034,262.4105,97.6757,-1.3545e-05,-2.55e-06,0.0,0 STARLINK-5994,1 56457U 23064K   23360.15235691 -.00000255  00000-0 -13545-4 0  9994,2 56457  70.0005  13.0034 0002615 262.4105  97.6757 14.98328692 35096,6950.197,96.107,573.879,570.244,0.0
56457.0,STARLINK-5994,PAYLOAD,2023-12-26 10:03:56,14.98326635,0.0002432,70.0012,12.3314,247.4074,112.6827,-3.1395e-05,-4.67e-06,0.0,0 STARLINK-5994,1 56457U 23064K   23360.41939929 -.00000467  00000-0 -31395-4 0  9996,2 56457  70.0012  12.3314 0002432 247.4074 112.6827 14.98326635 34777,6950.203,96.107,573.759,570.378,0.0
56457.0,STARLINK-5994,PAYLOAD,2023-12-27 03:41:24,14.98329618,0.0002446,70.001,10.4792,254.237,105.8519,3.2861e-05,2.99e-06,0.0,0 STARLINK-5994,1 56457U 23064K   23361.15375516  .00000299  00000-0  32861-4 0  9994,2 56457  70.0010  10.4792 0002446 254.2370 105.8519 14.98329618 35243,6950.194,96.107,573.759,570.359,0.0
56457.0,STARLINK-5994,PAYLOAD,2023-12-27 10:05:56,14.98328248,0.0002579,70.0005,9.8061,254.955,105.1323,6.6227e-05,6.97e-06,0.0,0 STARLINK-5994,1 56457U 23064K   23361.42079515  .00000697  00000-0  66227-4 0  9999,2 56457  70.0005   9.8061 0002579 254.9550 105.1323 14.98328248 34920,6950.198,96.107,573.856,570.271,0.0
56457.0,STARLINK-5994,PAYLOAD,2023-12-28 03:43:25,14.98327366,0.0002585,70.0005,7.9544,252.9625,107.1251,1.895e-05,1.33e-06,0.0,0 STARLINK-5994,1 56457U 23064K   23362.15515625  .00000133  00000-0  18950-4 0  9992,2 56457  70.0005   7.9544 0002585 252.9625 107.1251 14.98327366 35397,6950.201,96.107,573.863,570.269,0.0
56457.0,STARLINK-5994,PAYLOAD,2023-12-28 10:07:57,14.98333089,0.0002639,70.0006,7.2805,257.1964,102.8901,-0.00012629,-1.6e-05,0.0,0 STARLINK-5994,1 56457U 23064K   23362.42219684 -.00001600  00000-0 -12629-3 0  9996,2 56457  70.0006   7.2805 0002639 257.1964 102.8901 14.98333089 35072,6950.183,96.107,573.882,570.214,0.0
56457.0,STARLINK-5994,PAYLOAD,2023-12-29 03:45:26,14.98331779,0.0002679,70.0002,5.4284,258.9158,101.1699,4.4734e-06,-4e-07,0.0,0 STARLINK-5994,1 56457U 23064K   23363.15655440 -.00000040  00000-0  44734-5 0  9991,2 56457  70.0002   5.4284 0002679 258.9158 101.1699 14.98331779 35549,6950.187,96.107,573.914,570.19,0.0
56457.0,STARLINK-5994,PAYLOAD,2023-12-29 10:09:58,14.9833044,0.0002708,70.0003,4.7552,260.2173,99.868,-1.1576e-05,-2.31e-06,0.0,0 STARLINK-5994,1 56457U 23064K   23363.42359570 -.00000231  00000-0 -11576-4 0  9996,2 56457  70.0003   4.7552 0002708 260.2173  99.8680 14.98330440 35228,6950.192,96.107,573.939,570.174,0.0
56457.0,STARLINK-5994,PAYLOAD,2023-12-30 03:47:27,14.98330581,0.0002795,70.0001,2.9032,263.6238,96.4603,3.3532e-05,3.07e-06,0.0,0 STARLINK-5994,1 56457U 23064K   23364.15795380  .00000307  00000-0  33532-4 0  9998,2 56457  70.0001   2.9032 0002795 263.6238  96.4603 14.98330581 35699,6950.191,96.107,573.999,570.114,0.0
56457.0,STARLINK-5994,PAYLOAD,2023-12-30 10:11:59,14.98332412,0.000276,70.0002,2.23,263.0068,97.0777,5.2695e-05,5.36e-06,0.0,0 STARLINK-5994,1 56457U 23064K   23364.42499184  .00000536  00000-0  52695-4 0  9996,2 56457  70.0002   2.2300 0002760 263.0068  97.0777 14.98332412 35377,6950.185,96.107,573.969,570.132,0.0
56457.0,STARLINK-5994,PAYLOAD,2023-12-31 03:49:28,14.98326744,0.0002662,70.0005,0.379,259.9077,100.1782,-2.9252e-05,-4.42e-06,0.0,0 STARLINK-5994,1 56457U 23064K   23365.15935740 -.00000442  00000-0 -29252-4 0  9991,2 56457  70.0005   0.3790 0002662 259.9077 100.1782 14.98326744 35842,6950.203,96.107,573.918,570.218,0.0
56457.0,STARLINK-5994,PAYLOAD,2023-12-31 10:14:00,14.98325934,0.0002784,70.0004,359.704,273.5446,86.5394,-6.6554e-05,-8.87e-06,0.0,0 STARLINK-5994,1 56457U 23064K   23365.42640037 -.00000887  00000-0 -66554-4 0  9992,2 56457  70.0004 359.7040 0002784 273.5446  86.5394 14.98325934 35528,6950.205,96.107,574.005,570.136,0.0
56457.0,STARLINK-5994,PAYLOAD,2024-01-01 03:51:29,14.98331801,0.0003033,69.9997,357.8525,271.6781,88.4031,-2.5e-06,-1.23e-06,0.0,0 STARLINK-5994,1 56457U 23064K   24001.16075416 -.00000123  00000-0 -25000-5 0  9999,2 56457  69.9997 357.8525 0003033 271.6781  88.4031 14.98331801 35992,6950.187,96.107,574.16,569.944,0.0
56457.0,STARLINK-5994,PAYLOAD,2024-01-01 08:39:53,14.98333587,0.0002776,70.0001,357.3477,268.9987,91.0854,1.5102e-05,8.7e-07,0.0,0 STARLINK-5994,1 56457U 23064K   24001.36103216  .00000087  00000-0  15102-4 0  9999,2 56457  70.0001 357.3477 0002776 268.9987  91.0854 14.98333587 35662,6950.182,96.107,573.976,570.117,0.0
56457.0,STARLINK-5994,PAYLOAD,2024-01-01 23:05:05,14.9832948,0.0002818,70.0002,355.833,264.1299,95.9539,9.6158e-05,1.055e-05,0.0,0 STARLINK-5994,1 56457U 23064K   24001.96187079  .00001055  00000-0  96158-4 0  9990,2 56457  70.0002 355.8330 0002818 264.1299  95.9539 14.98329480 35755,6950.194,96.107,574.018,570.101,0.0
56457.0,STARLINK-5994,PAYLOAD,2024-01-02 03:53:29,14.98329608,0.0002937,69.9999,355.3277,266.8769,93.2054,5.5218e-05,5.66e-06,0.0,0 STARLINK-5994,1 56457U 23064K   24002.16215191  .00000566  00000-0  55218-4 0  9998,2 56457  69.9999 355.3277 0002937 266.8769  93.2054 14.98329608 36144,6950.194,96.107,574.1,570.018,0.0
56457.0,STARLINK-5994,PAYLOAD,2024-01-02 10:18:02,14.98330803,0.0002915,70.0,354.6544,267.8176,92.2649,8.2307e-05,8.89e-06,0.0,0 STARLINK-5994,1 56457U 23064K   24002.42919019  .00000889  00000-0  82307-4 0  9994,2 56457  70.0000 354.6544 0002915 267.8176  92.2649 14.98330803 35820,6950.19,96.107,574.081,570.029,0.0
56457.0,STARLINK-5994,PAYLOAD,2024-01-03 03:55:31,14.98327027,0.0002771,70.0005,352.8036,258.753,101.3318,-6.3521e-05,-8.51e-06,0.0,0 STARLINK-5994,1 56457U 23064K   24003.16355619 -.00000851  00000-0 -63521-4 0  9994,2 56457  70.0005 352.8036 0002771 258.7530 101.3318 14.98327027 36295,6950.202,96.107,573.993,570.141,0.0
56457.0,STARLINK-5994,PAYLOAD,2024-01-03 08:43:55,14.98327187,0.0002778,70.0005,352.2985,258.6963,101.3883,-5.878e-05,-7.94e-06,0.0,0 STARLINK-5994,1 56457U 23064K   24003.36383622 -.00000794  00000-0 -58780-4 0  9998,2 56457  70.0005 352.2985 0002778 258.6963 101.3883 14.98327187 35965,6950.202,96.107,573.997,570.136,0.0
